COSMOS 1933             
1 18958U 88020A   26043.73899012  .00003435  00000+0  16865-3 0  9996
2 18958  82.5117 275.5985 0002865 302.8156  57.2801 15.17763465 46440
SL-3 R/B                
1 19046U 88032B   26043.77822060  .00006098  00000+0  28748-3 0  9992
2 19046  97.5149  27.1316 0024995 324.7299  35.2281 15.19586029 48326
SL-16 R/B               
1 19120U 88039B   26043.61372548  .00000119  00000+0  79151-4 0  9999
2 19120  71.0146 121.5740 0021220  12.4413 347.7232 14.19612045954825
COSMOS 1953             
1 19210U 88050A   26043.81036756  .00010166  00000+0  37007-3 0  9998
2 19210  82.5088 183.2529 0010872 207.0268 153.0407 15.28027326 33988
SL-8 R/B                
1 19257U 88053B   26043.70543794  .00000236  00000+0  85108-4 0  9998
2 19257  74.0485 158.5144 0020600 342.3079 122.7792 14.38900534973004
COSMOS 1975             
1 19573U 88093A   26043.77177021  .00008995  00000+0  33134-3 0  9997
2 19573  82.5221 142.6834 0010313 255.9086 104.1007 15.27634918 15609
SL-14 R/B               
1 19574U 88093B   26043.55003623  .00000479  00000+0  52306-4 0  9992
2 19574  82.5278  65.6498 0022123 119.3413 357.1088 14.85627252997302
SL-16 R/B               
1 19650U 88102B   26043.68823735  .00000297  00000+0  17425-3 0  9996
2 19650  70.9983 204.0981 0012635  42.4669 317.7429 14.16149624923354
INTERCOSMOS 24          
1 20261U 89080A   26043.70336594  .00000495  00000+0  14302-3 0  9998
2 20261  82.6061 120.6688 1187788 350.8520   7.2520 12.59522404663656
SL-14 R/B               
1 20262U 89080C   26043.75009972  .00000476  00000+0  14378-3 0  9993
2 20262  82.5949 189.1948 1229535 241.7733 105.3948 12.50462026657034
DELTA 1 R/B             
1 20323U 89089B   26043.58226549  .00000372  00000+0  10072-3 0  9994
2 20323  97.0724 255.0110 0068513 200.9246 158.9146 14.50642007892092
ARIANE 40 R/B           
1 20443U 90005H   26043.72709899  .00000269  00000+0  99252-4 0  9990
2 20443  98.3140 105.1256 0008893 280.6212  79.3974 14.39853520889216
